{
  "type": "FeatureCollection",
  "features": [
    {
      "type": "Feature",
      "properties": {
        "norad_id": 33913,
        "name": "COSMOS 2251 DEB",
        "group": "cosmos-2251-debris",
        "lat": -59.45409651649696,
        "lon": 157.03255432231563,
        "alt_km": 703.4546135683258,
        "timestamp": "2025-12-11T10:53:16.282750+00:00",
        "meta_object_name": "COSMOS 2251 DEB",
        "meta_object_id": "1993-036DS",
        "meta_epoch": "2025-12-11T00:17:35.719008",
        "meta_mean_motion": 14.48474621,
        "meta_eccentricity": 0.0048171,
        "meta_inclination": 74.0334,
        "meta_ra_of_asc_node": 186.8819,
        "meta_arg_of_pericenter": 289.7669,
        "meta_mean_anomaly": 225.6348,
        "meta_ephemeris_type": 0,
        "meta_classification_type": "U",
        "meta_norad_cat_id": 33913,
        "meta_element_set_no": 999,
        "meta_rev_at_epoch": 88432,
        "meta_bstar": 0.00075305,
        "meta_mean_motion_dot": 2.839e-05,
        "meta_mean_motion_ddot": 0,
        "tle_line1": "1 33913U 93036DS  25345.01221897  .00002839  00000+0  75305-3 0  9993",
        "tle_line2": "2 33913  74.0334 186.8819 0048171 289.7669 225.6348 14.48474621884327"
      },
      "geometry": {
        "type": "Point",
        "coordinates": [
          157.03255432231563,
          -59.45409651649696
        ]
      }
    },
    {
      "type": "Feature",
      "properties": {
        "norad_id": 33914,
        "name": "COSMOS 2251 DEB",
        "group": "cosmos-2251-debris",
        "lat": -70.71846409413143,
        "lon": -108.17557044560856,
        "alt_km": 1162.4303090839385,
        "timestamp": "2025-12-11T10:53:16.282761+00:00",
        "meta_object_name": "COSMOS 2251 DEB",
        "meta_object_id": "1993-036DT",
        "meta_epoch": "2025-12-11T02:43:40.947168",
        "meta_mean_motion": 13.71983167,
        "meta_eccentricity": 0.0301302,
        "meta_inclination": 74.0914,
        "meta_ra_of_asc_node": 17.7747,
        "meta_arg_of_pericenter": 121.2098,
        "meta_mean_anomaly": 256.7792,
        "meta_ephemeris_type": 0,
        "meta_classification_type": "U",
        "meta_norad_cat_id": 33914,
        "meta_element_set_no": 999,
        "meta_rev_at_epoch": 84059,
        "meta_bstar": 0.00055433,
        "meta_mean_motion_dot": 6.76e-06,
        "meta_mean_motion_ddot": 0,
        "tle_line1": "1 33914U 93036DT  25345.11366837  .00000676  00000+0  55433-3 0  9996",
        "tle_line2": "2 33914  74.0914  17.7747 0301302 121.2098 256.7792 13.71983167840592"
      },
      "geometry": {
        "type": "Point",
        "coordinates": [
          -108.17557044560856,
          -70.71846409413143
        ]
      }
    },
    {
      "type": "Feature",
      "properties": {
        "norad_id": 33915,
        "name": "COSMOS 2251 DEB",
        "group": "cosmos-2251-debris",
        "lat": 73.39639627569505,
        "lon": 110.09401447499938,
        "alt_km": 713.2722675914856,
        "timestamp": "2025-12-11T10:53:16.282772+00:00",
        "meta_object_name": "COSMOS 2251 DEB",
        "meta_object_id": "1993-036DU",
        "meta_epoch": "2025-12-11T05:46:16.074048",
        "meta_mean_motion": 14.35077874,
        "meta_eccentricity": 0.0104469,
        "meta_inclination": 74.0443,
        "meta_ra_of_asc_node": 36.8546,
        "meta_arg_of_pericenter": 129.8148,
        "meta_mean_anomaly": 295.4089,
        "meta_ephemeris_type": 0,
        "meta_classification_type": "U",
        "meta_norad_cat_id": 33915,
        "meta_element_set_no": 999,
        "meta_rev_at_epoch": 87736,
        "meta_bstar": 0.00058509,
        "meta_mean_motion_dot": 1.75e-05,
        "meta_mean_motion_ddot": 0,
        "tle_line1": "1 33915U 93036DU  25345.24046382  .00001750  00000+0  58509-3 0  9992",
        "tle_line2": "2 33915  74.0443  36.8546 0104469 129.8148 295.4089 14.35077874877368"
      },
      "geometry": {
        "type": "Point",
        "coordinates": [
          110.09401447499938,
          73.39639627569505
        ]
      }
    },
    {
      "type": "Feature",
      "properties": {
        "norad_id": 33916,
        "name": "COSMOS 2251 DEB",
        "group": "cosmos-2251-debris",
        "lat": 4.012441596362093,
        "lon": -138.44714122714373,
        "alt_km": 817.8368747052436,
        "timestamp": "2025-12-11T10:53:16.282783+00:00",
        "meta_object_name": "COSMOS 2251 DEB",
        "meta_object_id": "1993-036DV",
        "meta_epoch": "2025-12-11T05:06:52.735968",
        "meta_mean_motion": 13.68611051,
        "meta_eccentricity": 0.0325371,
        "meta_inclination": 74.0529,
        "meta_ra_of_asc_node": 43.0971,
        "meta_arg_of_pericenter": 215.5622,
        "meta_mean_anomaly": 217.732,
        "meta_ephemeris_type": 0,
        "meta_classification_type": "U",
        "meta_norad_cat_id": 33916,
        "meta_element_set_no": 999,
        "meta_rev_at_epoch": 83870,
        "meta_bstar": 0.00066129,
        "meta_mean_motion_dot": 7.98e-06,
        "meta_mean_motion_ddot": 0,
        "tle_line1": "1 33916U 93036DV  25345.21311037  .00000798  00000+0  66129-3 0  9990",
        "tle_line2": "2 33916  74.0529  43.0971 0325371 215.5622 217.7320 13.68611051838709"
      },
      "geometry": {
        "type": "Point",
        "coordinates": [
          -138.44714122714373,
          4.012441596362093
        ]
      }
    },
    {
      "type": "Feature",
      "properties": {
        "norad_id": 33917,
        "name": "COSMOS 2251 DEB",
        "group": "cosmos-2251-debris",
        "lat": -66.328589853321,
        "lon": -14.963452323925729,
        "alt_km": 788.3226461869981,
        "timestamp": "2025-12-11T10:53:16.282793+00:00",
        "meta_object_name": "COSMOS 2251 DEB",
        "meta_object_id": "1993-036DW",
        "meta_epoch": "2025-12-11T02:38:28.753728",
        "meta_mean_motion": 13.69354695,
        "meta_eccentricity": 0.0331256,
        "meta_inclination": 74.1069,
        "meta_ra_of_asc_node": 125.0655,
        "meta_arg_of_pericenter": 226.3815,
        "meta_mean_anomaly": 130.9388,
        "meta_ephemeris_type": 0,
        "meta_classification_type": "U",
        "meta_norad_cat_id": 33917,
        "meta_element_set_no": 999,
        "meta_rev_at_epoch": 83711,
        "meta_bstar": 0.0010469,
        "meta_mean_motion_dot": 1.314e-05,
        "meta_mean_motion_ddot": 0,
        "tle_line1": "1 33917U 93036DW  25345.11005502  .00001314  00000+0  10469-2 0  9997",
        "tle_line2": "2 33917  74.1069 125.0655 0331256 226.3815 130.9388 13.69354695837116"
      },
      "geometry": {
        "type": "Point",
        "coordinates": [
          -14.963452323925729,
          -66.328589853321
        ]
      }
    },
    {
      "type": "Feature",
      "properties": {
        "norad_id": 33920,
        "name": "COSMOS 2251 DEB",
        "group": "cosmos-2251-debris",
        "lat": -70.70785386952781,
        "lon": -113.85067710507879,
        "alt_km": 681.4614866979227,
        "timestamp": "2025-12-11T10:53:16.282803+00:00",
        "meta_object_name": "COSMOS 2251 DEB",
        "meta_object_id": "1993-036DZ",
        "meta_epoch": "2025-12-09T21:22:37.466688",
        "meta_mean_motion": 14.58191466,
        "meta_eccentricity": 0.00383772,
        "meta_inclination": 74.0619,
        "meta_ra_of_asc_node": 303.8409,
        "meta_arg_of_pericenter": 310.7658,
        "meta_mean_anomaly": 49.0178,
        "meta_ephemeris_type": 0,
        "meta_classification_type": "U",
        "meta_norad_cat_id": 33920,
        "meta_element_set_no": 999,
        "meta_rev_at_epoch": 88073,
        "meta_bstar": 0.0030275677,
        "meta_mean_motion_dot": 0.0001411,
        "meta_mean_motion_ddot": 0,
        "tle_line1": "1 33920U 93036DZ  25343.89071142  .00014110  00000+0  30276-2 0  9993",
        "tle_line2": "2 33920  74.0619 303.8409 0038377 310.7658  49.0178 14.58191466880731"
      },
      "geometry": {
        "type": "Point",
        "coordinates": [
          -113.85067710507879,
          -70.70785386952781
        ]
      }
    },
    {
      "type": "Feature",
      "properties": {
        "norad_id": 33922,
        "name": "COSMOS 2251 DEB",
        "group": "cosmos-2251-debris",
        "lat": 69.15911142761445,
        "lon": -78.53857286991712,
        "alt_km": 735.4600576949933,
        "timestamp": "2025-12-11T10:53:16.282814+00:00",
        "meta_object_name": "COSMOS 2251 DEB",
        "meta_object_id": "1993-036EB",
        "meta_epoch": "2025-12-11T04:36:01.507104",
        "meta_mean_motion": 14.49497352,
        "meta_eccentricity": 0.0023248,
        "meta_inclination": 74.0467,
        "meta_ra_of_asc_node": 150.6658,
        "meta_arg_of_pericenter": 261.4494,
        "meta_mean_anomaly": 275.7185,
        "meta_ephemeris_type": 0,
        "meta_classification_type": "U",
        "meta_norad_cat_id": 33922,
        "meta_element_set_no": 999,
        "meta_rev_at_epoch": 88555,
        "meta_bstar": 0.00069792,
        "meta_mean_motion_dot": 2.657e-05,
        "meta_mean_motion_ddot": 0,
        "tle_line1": "1 33922U 93036EB  25345.19168411  .00002657  00000+0  69792-3 0  9995",
        "tle_line2": "2 33922  74.0467 150.6658 0023248 261.4494 275.7185 14.49497352885553"
      },
      "geometry": {
        "type": "Point",
        "coordinates": [
          -78.53857286991712,
          69.15911142761445
        ]
      }
    }
  ]
}